start=new Date('2021-10-06T00:00:00.000Z').valueOf();
sats=[{"PERIOD":"95.593","EPHEMERIS_TYPE":"0","PERIAPSIS":"545.685","TLE_LINE1":"1 47606U 21009BL  21278.12155293 -.00000785  00000-0 -33767-4 0  9995","APOAPSIS":"548.805","CENTER_NAME":"EARTH","MEAN_ANOMALY":"262.6779","REF_FRAME":"TEME","GP_ID":"186283134","SEMIMAJOR_AXIS":"6925.380","MEAN_MOTION_DDOT":"0.0000000000000","DECAY_DATE":null,"ELEMENT_SET_NO":"999","MEAN_MOTION":"15.06389733","CLASSIFICATION_TYPE":"U","RA_OF_ASC_NODE":"68.6601","TIME_SYSTEM":"UTC","NORAD_CAT_ID":"47606","OBJECT_TYPE":"PAYLOAD","SITE":"AFETR","ARG_OF_PERICENTER":"97.4466","OBJECT_NAME":"STARLINK-2024","INCLINATION":"53.0564","OBJECT_ID":"2021-009BL","COUNTRY_CODE":"US","EPOCH":"2021-10-05T02:55:02.173152","MEAN_MOTION_DOT":"-0.00000785","ECCENTRICITY":"0.00022530","BSTAR":"-0.00003376700000","TLE_LINE2":"2 47606  53.0564  68.6601 0002253  97.4466 262.6779 15.06389733 37883","LAUNCH_DATE":"2021-02-04","FILE":"3146257","REV_AT_EPOCH":"3788","RCS_SIZE":"LARGE","MEAN_ELEMENT_THEORY":"SGP4"},{"REV_AT_EPOCH":"3732","RCS_SIZE":"LARGE","MEAN_ELEMENT_THEORY":"SGP4","TLE_LINE2":"2 47607  53.0577  67.2954 0001994  94.3415 265.7802 15.06388895 37323","LAUNCH_DATE":"2021-02-04","FILE":"3145988","BSTAR":"-0.00001748100000","COUNTRY_CODE":"US","EPOCH":"2021-10-05T10:20:53.018016","MEAN_MOTION_DOT":"-0.00000542","ECCENTRICITY":"0.00019940","INCLINATION":"53.0577","OBJECT_ID":"2021-009BM","OBJECT_NAME":"STARLINK-2025","SITE":"AFETR","ARG_OF_PERICENTER":"94.3415","TIME_SYSTEM":"UTC","NORAD_CAT_ID":"47607","OBJECT_TYPE":"PAYLOAD","MEAN_MOTION":"15.06388895","CLASSIFICATION_TYPE":"U","RA_OF_ASC_NODE":"67.2954","DECAY_DATE":null,"ELEMENT_SET_NO":"999","MEAN_MOTION_DDOT":"0.0000000000000","MEAN_ANOMALY":"265.7802","REF_FRAME":"TEME","GP_ID":"186277094","SEMIMAJOR_AXIS":"6925.383","PERIAPSIS":"545.867","TLE_LINE1":"1 47607U 21009BM  21278.43116919 -.00000542  00000-0 -17481-4 0  9998","APOAPSIS":"548.629","CENTER_NAME":"EARTH","PERIOD":"95.593","EPHEMERIS_TYPE":"0"},{"ELEMENT_SET_NO":"999","DECAY_DATE":null,"MEAN_MOTION_DDOT":"0.0000000000000","OBJECT_TYPE":"PAYLOAD","TIME_SYSTEM":"UTC","NORAD_CAT_ID":"47620","CLASSIFICATION_TYPE":"U","RA_OF_ASC_NODE":"127.8112","MEAN_MOTION":"15.06392804","EPHEMERIS_TYPE":"0","PERIOD":"95.593","SEMIMAJOR_AXIS":"6925.371","GP_ID":"186276343","MEAN_ANOMALY":"286.4405","REF_FRAME":"TEME","TLE_LINE1":"1 47620U 21012A   21278.31505755  .00000583  00000-0  58074-4 0  9990","APOAPSIS":"548.283","CENTER_NAME":"EARTH","PERIAPSIS":"546.188","BSTAR":"0.00005807400000","MEAN_MOTION_DOT":"0.00000583","ECCENTRICITY":"0.00015130","COUNTRY_CODE":"US","EPOCH":"2021-10-05T07:33:40.972320","MEAN_ELEMENT_THEORY":"SGP4","REV_AT_EPOCH":"3635","RCS_SIZE":"LARGE","FILE":"3145988","LAUNCH_DATE":"2021-02-16","TLE_LINE2":"2 47620  53.0556 127.8112 0001513  73.6751 286.4405 15.06392804 36350","OBJECT_NAME":"STARLINK-1528","SITE":"AFETR","ARG_OF_PERICENTER":"73.6751","INCLINATION":"53.0556","OBJECT_ID":"2021-012A"},{"MEAN_ANOMALY":"267.4384","REF_FRAME":"TEME","GP_ID":"186277095","SEMIMAJOR_AXIS":"6925.366","PERIAPSIS":"545.952","TLE_LINE1":"1 47621U 21012B   21278.30769426 -.00000162  00000-0  80183-5 0  9998","APOAPSIS":"548.510","CENTER_NAME":"EARTH","PERIOD":"95.593","EPHEMERIS_TYPE":"0","TIME_SYSTEM":"UTC","NORAD_CAT_ID":"47621","OBJECT_TYPE":"PAYLOAD","MEAN_MOTION":"15.06394213","CLASSIFICATION_TYPE":"U","RA_OF_ASC_NODE":"127.8341","DECAY_DATE":null,"ELEMENT_SET_NO":"999","MEAN_MOTION_DDOT":"0.0000000000000","INCLINATION":"53.0548","OBJECT_ID":"2021-012B","OBJECT_NAME":"STARLINK-1609","SITE":"AFETR","ARG_OF_PERICENTER":"92.6816","RCS_SIZE":"LARGE","REV_AT_EPOCH":"3636","MEAN_ELEMENT_THEORY":"SGP4","TLE_LINE2":"2 47621  53.0548 127.8341 0001847  92.6816 267.4384 15.06394213 36361","LAUNCH_DATE":"2021-02-16","FILE":"3145988","BSTAR":"0.00000801830000","COUNTRY_CODE":"US","EPOCH":"2021-10-05T07:23:04.784064","MEAN_MOTION_DOT":"-0.00000162","ECCENTRICITY":"0.00018470"},{"ARG_OF_PERICENTER":"76.6011","SITE":"AFETR","OBJECT_NAME":"STARLINK-1645","OBJECT_ID":"2021-012C","INCLINATION":"53.0542","ECCENTRICITY":"0.00015900","MEAN_MOTION_DOT":"-0.00000277","EPOCH":"2021-10-05T07:17:46.459680","COUNTRY_CODE":"US","BSTAR":"0.00000032613000","FILE":"3146215","TLE_LINE2":"2 47622  53.0542 127.8437 0001590  76.6011 283.5155 15.06392700 35842","LAUNCH_DATE":"2021-02-16","MEAN_ELEMENT_THEORY":"SGP4","REV_AT_EPOCH":"3584","RCS_SIZE":"LARGE","EPHEMERIS_TYPE":"0","PERIOD":"95.593","CENTER_NAME":"EARTH","APOAPSIS":"548.337","TLE_LINE1":"1 47622U 21012C   21278.30400995 -.00000277  00000-0  32613-6 0  9995","PERIAPSIS":"546.135","SEMIMAJOR_AXIS":"6925.371","GP_ID":"186282069","REF_FRAME":"TEME","MEAN_ANOMALY":"283.5155","MEAN_MOTION_DDOT":"0.0000000000000","DECAY_DATE":null,"ELEMENT_SET_NO":"999","RA_OF_ASC_NODE":"127.8437","CLASSIFICATION_TYPE":"U","MEAN_MOTION":"15.06392700","OBJECT_TYPE":"PAYLOAD","NORAD_CAT_ID":"47622","TIME_SYSTEM":"UTC"},{"TIME_SYSTEM":"UTC","NORAD_CAT_ID":"47623","OBJECT_TYPE":"PAYLOAD","MEAN_MOTION":"15.06395716","RA_OF_ASC_NODE":"62.1939","CLASSIFICATION_TYPE":"U","DECAY_DATE":null,"ELEMENT_SET_NO":"999","MEAN_MOTION_DDOT":"0.0000000000000","MEAN_ANOMALY":"252.8597","REF_FRAME":"TEME","GP_ID":"186276593","SEMIMAJOR_AXIS":"6925.362","PERIAPSIS":"545.995","TLE_LINE1":"1 47623U 21012D   21278.44820820  .00000491  00000-0  51873-4 0  9998","CENTER_NAME":"EARTH","APOAPSIS":"548.459","PERIOD":"95.592","EPHEMERIS_TYPE":"0","RCS_SIZE":"LARGE","REV_AT_EPOCH":"3729","MEAN_ELEMENT_THEORY":"SGP4","TLE_LINE2":"2 47623  53.0566  62.1939 0001779 107.2587 252.8597 15.06395716 37295","LAUNCH_DATE":"2021-02-16","FILE":"3145988","BSTAR":"0.00005187300000","COUNTRY_CODE":"US","EPOCH":"2021-10-05T10:45:25.188480","MEAN_MOTION_DOT":"0.00000491","ECCENTRICITY":"0.00017790","INCLINATION":"53.0566","OBJECT_ID":"2021-012D","OBJECT_NAME":"STARLINK-1655","SITE":"AFETR","ARG_OF_PERICENTER":"107.2587"},{"OBJECT_TYPE":"PAYLOAD","TIME_SYSTEM":"UTC","NORAD_CAT_ID":"47624","RA_OF_ASC_NODE":"108.1203","CLASSIFICATION_TYPE":"U","MEAN_MOTION":"15.06395289","DECAY_DATE":null,"ELEMENT_SET_NO":"999","MEAN_MOTION_DDOT":"0.0000000000000","GP_ID":"186276843","SEMIMAJOR_AXIS":"6925.363","MEAN_ANOMALY":"267.3255","REF_FRAME":"TEME","TLE_LINE1":"1 47624U 21012E   21278.24319028 -.00000690  00000-0 -27393-4 0  9993","APOAPSIS":"548.452","CENTER_NAME":"EARTH","PERIAPSIS":"546.004","EPHEMERIS_TYPE":"0","PERIOD":"95.592","MEAN_ELEMENT_THEORY":"SGP4","RCS_SIZE":"LARGE","REV_AT_EPOCH":"3664","FILE":"3145988","TLE_LINE2":"2 47624  53.0551 108.1203 0001767  92.7937 267.3255 15.06395289 36644","LAUNCH_DATE":"2021-02-16","BSTAR":"-0.00002739300000","MEAN_MOTION_DOT":"-0.00000690","ECCENTRICITY":"0.00017670","COUNTRY_CODE":"US","EPOCH":"2021-10-05T05:50:11.640192","INCLINATION":"53.0551","OBJECT_ID":"2021-012E","OBJECT_NAME":"STARLINK-1669","SITE":"AFETR","ARG_OF_PERICENTER":"92.7937"},{"ECCENTRICITY":"0.00019080","MEAN_MOTION_DOT":"-0.00000235","EPOCH":"2021-10-05T07:28:22.630656","COUNTRY_CODE":"US","BSTAR":"0.00000310410000","FILE":"3145988","TLE_LINE2":"2 47625  53.0547 127.8163 0001908  85.4261 274.6946 15.06400156 36355","LAUNCH_DATE":"2021-02-16","MEAN_ELEMENT_THEORY":"SGP4","RCS_SIZE":"LARGE","REV_AT_EPOCH":"3635","ARG_OF_PERICENTER":"85.4261","SITE":"AFETR","OBJECT_NAME":"STARLINK-1704","OBJECT_ID":"2021-012F","INCLINATION":"53.0547","MEAN_MOTION_DDOT":"0.0000000000000","ELEMENT_SET_NO":"999","DECAY_DATE":null,"RA_OF_ASC_NODE":"127.8163","CLASSIFICATION_TYPE":"U","MEAN_MOTION":"15.06400156","OBJECT_TYPE":"PAYLOAD","NORAD_CAT_ID":"47625","TIME_SYSTEM":"UTC","EPHEMERIS_TYPE":"0","PERIOD":"95.592","CENTER_NAME":"EARTH","APOAPSIS":"548.534","TLE_LINE1":"1 47625U 21012F   21278.31137304 -.00000235  00000-0  31041-5 0  9997","PERIAPSIS":"545.892","GP_ID":"186277595","SEMIMAJOR_AXIS":"6925.348","REF_FRAME":"TEME","MEAN_ANOMALY":"274.6946"},{"BSTAR":"0.00002058800000","ECCENTRICITY":"0.00020460","MEAN_MOTION_DOT":"0.00000025","EPOCH":"2021-10-05T07:07:09.049728","COUNTRY_CODE":"US","MEAN_ELEMENT_THEORY":"SGP4","REV_AT_EPOCH":"3635","RCS_SIZE":"LARGE","FILE":"3145988","LAUNCH_DATE":"2021-02-16","TLE_LINE2":"2 47626  53.0540 127.8738 0002046  89.0937 271.0286 15.06393744 36353","OBJECT_NAME":"STARLINK-1761","ARG_OF_PERICENTER":"89.0937","SITE":"AFETR","OBJECT_ID":"2021-012G","INCLINATION":"53.0540","ELEMENT_SET_NO":"999","DECAY_DATE":null,"MEAN_MOTION_DDOT":"0.0000000000000","OBJECT_TYPE":"PAYLOAD","NORAD_CAT_ID":"47626","TIME_SYSTEM":"UTC","RA_OF_ASC_NODE":"127.8738","CLASSIFICATION_TYPE":"U","MEAN_MOTION":"15.06393744","EPHEMERIS_TYPE":"0","PERIOD":"95.593","SEMIMAJOR_AXIS":"6925.368","GP_ID":"186277346","REF_FRAME":"TEME","MEAN_ANOMALY":"271.0286","APOAPSIS":"548.650","CENTER_NAME":"EARTH","TLE_LINE1":"1 47626U 21012G   21278.29663252  .00000025  00000-0  20588-4 0  9990","PERIAPSIS":"545.816"},{"REF_FRAME":"TEME","MEAN_ANOMALY":"179.2080","SEMIMAJOR_AXIS":"6838.703","GP_ID":"186306708","PERIAPSIS":"459.467","CENTER_NAME":"EARTH","APOAPSIS":"461.668","TLE_LINE1":"1 47627U 21012H   21279.00001157 -.01083555  00000-0 -34185-1 0  9998","PERIOD":"93.804","EPHEMERIS_TYPE":"0","NORAD_CAT_ID":"47627","TIME_SYSTEM":"UTC","OBJECT_TYPE":"PAYLOAD","MEAN_MOTION":"15.35119509","RA_OF_ASC_NODE":"31.1909","CLASSIFICATION_TYPE":"U","ELEMENT_SET_NO":"999","DECAY_DATE":null,"MEAN_MOTION_DDOT":"0.0000000000000","OBJECT_ID":"2021-012H","INCLINATION":"53.0436","OBJECT_NAME":"STARLINK-1972","ARG_OF_PERICENTER":"49.4234","SITE":"AFETR","RCS_SIZE":"LARGE","REV_AT_EPOCH":"367","MEAN_ELEMENT_THEORY":"SGP4","TLE_LINE2":"2 47627  53.0436  31.1909 0001609  49.4234 179.2080 15.35119509  3676","LAUNCH_DATE":"2021-02-16","FILE":"3146344","BSTAR":"-0.03418500000000","EPOCH":"2021-10-06T00:00:00.999648","COUNTRY_CODE":"US","ECCENTRICITY":"0.00016090","MEAN_MOTION_DOT":"-0.01083555"}];
